QIANFAN-1               
1 60379U 24140A   25355.58038131  .00000087  00000+0  11605-3 0  9995
2 60379  88.9769 298.3654 0016776 183.5331 176.5705 13.50979398 68540
QIANFAN-2               
1 60380U 24140B   25355.53528468  .00000082  00000+0  10743-3 0  9996
2 60380  88.9755 298.2082 0013007 153.3731 206.8091 13.50983097 68595
QIANFAN-3               
1 60381U 24140C   25355.54344647  .00000095  00000+0  12766-3 0  9994
2 60381  88.9748 298.3393 0013694 166.5022 193.6498 13.50983683 68501
QIANFAN-4               
1 60382U 24140D   25355.51865169  .00000085  00000+0  11211-3 0  9992
2 60382  88.9773 298.2417 0013138 156.1062 204.0702 13.50979390 68626
QIANFAN-5               
1 60383U 24140E   25355.56814950  .00000090  00000+0  12133-3 0  9990
2 60383  88.9748 298.3621 0014585 178.5726 181.5469 13.50981393 68499
QIANFAN-6               
1 60384U 24140F   25355.58873938  .00000095  00000+0  12811-3 0  9992
2 60384  88.9774 298.1086 0013080 161.8394 198.3227 13.50981744 68697
QIANFAN-7               
1 60385U 24140G   25355.57598016  .00000573  00000+0  22645-3 0  9990
2 60385  88.9790 292.6837 0016161  19.3900 340.7906 14.27660784 71652
QIANFAN-8               
1 60386U 24140H   25355.52295158  .00000077  00000+0  99749-4 0  9996
2 60386  88.9776 298.3530 0016427 166.0285 194.1324 13.50979597 68539
